STARLINK-31370          
1 59520U 24073K   26068.03793613 -.00000162  00000+0  36224-5 0  9992
2 59520  43.0011 321.9034 0000716 322.7310  37.3491 15.27574936106076
KUIPER-00209            
1 67776U 26030N   26068.61786546  .00035298  00000+0  11963-2 0  9997
2 67776  51.8838 220.0775 0012191  59.1967 301.0215 15.30161950  5077
